OBJECT_NAME,OBJECT_ID,EPOCH,MEAN_MOTION,ECCENTRICITY,INCLINATION,RA_OF_ASC_NODE,ARG_OF_PERICENTER,MEAN_ANOMALY,EPHEMERIS_TYPE,CLASSIFICATION_TYPE,NORAD_CAT_ID,ELEMENT_SET_NO,REV_AT_EPOCH,BSTAR,MEAN_MOTION_DOT,MEAN_MOTION_DDOT
SIRION PATHFINDER-2,2018-099B,2026-06-19T16:36:57.825216,15.14565833,.00071576,97.4247,219.6903,293.9955,66.0528,0,U,43759,999,41300,.22349746E-3,.4059E-4,0
CORVUS BC4,2018-099K,2026-06-19T21:37:06.596256,15.12513050,.00080178,97.4063,213.8018,4.0881,356.0414,0,U,43767,999,41281,.175635E-3,.2997E-4,0
M2 PATHFINDER,2020-037E,2026-06-20T02:32:30.379488,15.04683305,.00125353,97.8143,2.3704,137.7534,222.4660,0,U,45727,999,32593,.91333891E-4,.1223E-4,0
NETSAT-4,2020-068U,2026-06-19T23:26:15.148608,15.43941889,.00035369,97.8606,179.4415,325.1547,34.9468,0,U,46504,999,31620,.33293789E-3,.15061E-3,0
NETSAT-3,2020-068V,2026-06-19T23:38:21.948000,15.42761824,.00038042,97.8656,177.6634,350.0729,10.0441,0,U,46505,999,31611,.36168984E-3,.15734E-3,0
NETSAT-1,2020-068W,2026-06-19T22:32:20.370624,15.34696284,.00047071,97.8748,171.9127,24.0550,336.0910,0,U,46506,999,31572,.3133461E-3,.10455E-3,0
NETSAT-2,2020-068X,2026-06-20T00:18:21.534336,15.46101808,.0003088,97.8618,179.3850,17.4041,342.7313,0,U,46507,999,31617,.40674271E-3,.19839E-3,0
GREENCUBE (IO-117),2022-080E,2026-06-20T07:07:43.075776,6.42583223,.00089227,70.1444,297.1634,288.8810,71.0882,0,U,53109,999,9226,0,-.3E-7,0
SITRO-AIS 5 (KATYS),2023-091L,2026-06-20T06:37:04.005120,15.29516052,.00127117,97.5056,235.2048,93.9091,266.3603,0,U,57176,999,16481,.35450314E-3,.10092E-3,0
SITRO-AIS 6 (CHIRKIN),2023-091AC,2026-06-20T06:17:01.469184,15.25982865,.00130888,97.5062,234.2934,97.0771,263.1956,0,U,57192,999,16475,.33522019E-3,.8563E-4,0
SITRO-AIS 8 (ANOKHIN),2023-091AD,2026-06-20T06:53:47.668128,15.32208364,.00117182,97.5051,236.8178,90.4642,269.7942,0,U,57193,999,16492,.38665355E-3,.11975E-3,0
SITRO-AIS 7 (FARTUSHNIY),2023-091AE,2026-06-20T06:22:27.859008,15.25669942,.00129409,97.5059,234.1206,97.9916,262.2791,0,U,57194,999,16474,.32912008E-3,.8326E-4,0
SITRO-AIS 10 (BURDAEV),2023-091AK,2026-06-20T05:46:45.627168,15.38710807,.00072964,97.5075,241.8562,71.2449,288.9587,0,U,57199,999,16523,.44618823E-3,.17014E-3,0
SITRO-AIS 9 (SHCHUKIN),2023-091AM,2026-06-20T06:26:11.056128,15.38216798,.0007563,97.5073,241.6118,71.3662,288.8404,0,U,57201,999,16522,.45055482E-3,.16908E-3,0
SITRO-AIS 12 (SMIRENNIY),2023-091AQ,2026-06-20T06:11:50.042976,15.38510082,.00070696,97.5087,242.0707,66.2147,293.9839,0,U,57204,999,16524,.44185239E-3,.16737E-3,0
SITRO-AIS 11 (SHEFFER),2023-091AU,2026-06-20T06:29:55.759200,15.38936733,.00069828,97.5084,242.3321,66.2463,293.9514,0,U,57208,999,16526,.44774504E-3,.172E-3,0
SITRO-AIS 25,2024-039R,2026-06-20T06:10:14.162304,14.93526558,.01430667,95.3906,237.2023,317.9214,41.1093,0,U,59066,999,12518,.18951095E-3,.2405E-4,0
SITRO-AIS 26,2024-039S,2026-06-20T06:12:48.896064,14.93321644,.01435086,95.3909,237.1004,318.5127,40.5273,0,U,59067,999,12517,.16215465E-3,.2043E-4,0
SITRO-AIS 27,2024-039T,2026-06-20T07:05:11.207040,14.93741790,.01425348,95.3913,237.3985,316.9831,42.0320,0,U,59068,999,12520,.13710558E-3,.1737E-4,0
SITRO-AIS 28,2024-039U,2026-06-20T06:32:36.401856,14.93776368,.01424167,95.3911,237.4305,316.8945,42.1197,0,U,59071,999,12520,.16173565E-3,.2057E-4,0
GRBBETA,2024-128C,2026-06-20T06:33:04.241664,15.06653951,.00402611,61.9881,205.4396,135.2866,225.1485,0,U,60237,999,10673,.15965979E-3,.2201E-4,0
OOV-CUBE (TUBSAT-30),2024-128F,2026-06-19T14:00:53.114976,15.02780984,.00443389,61.9930,217.2156,134.2886,226.1856,0,U,60240,999,10647,.11022768E-3,.1296E-4,0
ROBUSTA-3A (MEDITERRANEE),2024-128J,2026-06-20T02:40:29.209152,15.11700028,.00410305,61.9846,197.9022,128.4989,231.9798,0,U,60243,999,10686,.25845929E-3,.4283E-4,0
LASARSAT,2024-247Q,2026-06-20T06:29:39.147072,15.46534749,.0007836,44.9733,244.8864,348.4451,11.6258,0,U,62391,999,8379,.56522673E-3,.28493E-3,0
CROCUBE,2024-247T,2026-06-19T11:46:17.971392,15.48397693,.00077409,44.9701,246.5654,349.0739,10.9982,0,U,62394,999,8370,.60621754E-3,.32668E-3,0
FORESAIL-1 PRIME,2025-276DS,2026-06-19T10:25:32.106432,15.18719306,.00039613,97.4197,243.6644,98.6161,261.5522,0,U,66778,999,3074,.19871349E-3,.4058E-4,0
KNACKSAT-2,1998-067XZ,2026-06-19T14:13:09.931584,15.60167582,.00089348,51.6307,282.3774,225.7617,134.2643,0,U,67683,999,2065,.49084338E-3,.40473E-3,0
